BEIDOU-2 IGSO-1 (C06)   
1 36828U 10036A   24075.94681346 -.00000139  00000+0  00000+0 0  9998
2 36828  54.2460 170.4136 0039798 197.1093 253.5798  1.00253682 49973
BEIDOU-2 G4 (C04)       
1 37210U 10057A   24076.51956899 -.00000124  00000+0  00000+0 0  9993
2 37210   1.6243  67.2774 0005369 206.4743 247.8307  1.00270202 49045
BEIDOU-2 IGSO-2 (C07)   
1 37256U 10068A   24074.38520487 -.00000187  00000+0  00000+0 0  9997
2 37256  49.0513 281.9673 0031644 209.7106 287.5639  1.00280469 48525
BEIDOU-2 IGSO-3 (C08)   
1 37384U 11013A   24076.61182378 -.00000173  00000+0  00000+0 0  9996
2 37384  61.2257  48.0005 0026160 183.1096 272.5136  1.00282029 47416
BEIDOU-2 IGSO-4 (C09)   
1 37763U 11038A   24075.66165300 -.00000128  00000+0  00000+0 0  9994
2 37763  54.5531 173.0052 0121392 227.6322 107.3387  1.00278693 46387
BEIDOU-2 IGSO-5 (C10)   
1 37948U 11073A   24075.54601344 -.00000132  00000+0  00000+0 0  9993
2 37948  49.1801 281.6339 0093863 219.4324 324.4818  1.00272410 44872
BEIDOU-2 G5 (C05)       
1 38091U 12008A   24076.54153282  .00000045  00000+0  00000+0 0  9998
2 38091   1.8511  69.9814 0010689 250.5541 107.7970  1.00275046 44118
BEIDOU-2 M3 (C11)       
1 38250U 12018A   24075.50255664 -.00000101  00000+0  00000+0 0  9992
2 38250  56.3973 332.4582 0022060 268.2609  91.5257  1.86231202 80601
BEIDOU-2 M4 (C12)       
1 38251U 12018B   24075.43316039 -.00000100  00000+0  00000+0 0  9998
2 38251  56.3053 331.7393 0013114 274.9775  84.9125  1.86232040 80950
BEIDOU-2 M6 (C14)       
1 38775U 12050B   24075.67961779 -.00000013  00000+0  00000+0 0  9991
2 38775  55.8389  90.2867 0014522 328.0402  31.9078  1.86231117 77973
BEIDOU-2 G6 (C02)       
1 38953U 12059A   24076.54658014 -.00000187  00000+0  00000+0 0  9992
2 38953   2.3235  81.1006 0010689 298.4702  75.8377  1.00273199 41663
BEIDOU-3S IGSO-1S (C31) 
1 40549U 15019A   24074.61544484 -.00000169  00000+0  00000+0 0  9996
2 40549  50.7440 305.3025 0035588 192.2668 352.2700  1.00269624 32807
BEIDOU-3S M2S (C58)     
1 40748U 15037A   24075.09726866 -.00000098  00000+0  00000+0 0  9997
2 40748  55.5405 330.2301 0009098 266.3392  93.5975  1.86233055 58776
BEIDOU-3S M1S (C57)     
1 40749U 15037B   24075.90450895 -.00000099  00000+0  00000+0 0  9995
2 40749  55.5429 330.1894 0006328 347.2880  12.7353  1.86232950 58791
BEIDOU-3S IGSO-2S (C56) 
1 40938U 15053A   24075.99146360 -.00000109  00000+0  00000+0 0  9993
2 40938  50.5039 268.4845 0049105 187.1354 171.2423  1.00284022 31095
BEIDOU-2 IGSO-6 (C13)   
1 41434U 16021A   24075.74341995 -.00000148  00000+0  00000+0 0  9998
2 41434  59.0476  46.2899 0049911 225.4837 264.2871  1.00288381 29228
BEIDOU-2 G7 (C03)       
1 41586U 16037A   24076.55188851 -.00000365  00000+0  00000+0 0  9994
2 41586   1.6847  68.3496 0009352 319.6247  95.8390  1.00273310 28549
BEIDOU-3 M1 (C19)       
1 43001U 17069A   24074.37186181 -.00000010  00000+0  00000+0 0  9993
2 43001  55.9891  90.4141 0012426 297.4859  62.4268  1.86231295 43243
BEIDOU-3 M2 (C20)       
1 43002U 17069B   24076.45670454 -.00000009  00000+0  00000+0 0  9994
2 43002  55.9901  90.3812 0009946 315.4341  44.5222  1.86231065 43279
BEIDOU-3 M7 (C27)       
1 43107U 18003A   24075.13265019 -.00000099  00000+0  00000+0 0  9999
2 43107  54.9980 330.8610 0004791  55.0368 305.0477  1.86232323 42003
BEIDOU-3 M8 (C28)       
1 43108U 18003B   24076.14620322 -.00000101  00000+0  00000+0 0  9998
2 43108  54.9906 330.8122 0003771 282.2089  77.7870  1.86230922 42037
BEIDOU-3 M4 (C22)       
1 43207U 18018A   24074.43991535 -.00000010  00000+0  00000+0 0  9990
2 43207  55.9483  90.5043 0006723 332.7581  27.2457  1.86231223 41381
BEIDOU-3 M3 (C21)       
1 43208U 18018B   24075.58038631 -.00000012  00000+0  00000+0 0  9999
2 43208  55.9483  90.4705 0010043 306.3370  53.6068  1.86231366 41401
BEIDOU-3 M9 (C29)       
1 43245U 18029A   24075.26539229 -.00000096  00000+0  00000+0 0  9998
2 43245  54.8844 328.5725 0001138 349.1999  10.8383  1.86232457 40557
BEIDOU-3 M10 (C30)      
1 43246U 18029B   24075.19517741 -.00000096  00000+0  00000+0 0  9996
2 43246  54.8820 328.6035 0005061   6.0762 353.9707  1.86232718 40532
BEIDOU-2 IGSO-7 (C16)   
1 43539U 18057A   24073.63713333 -.00000140  00000+0  00000+0 0  9994
2 43539  55.1360 170.2033 0072115 231.6890 111.9431  1.00281844 20850
BEIDOU-3 M5 (C23)       
1 43581U 18062A   24076.49063676  .00000015  00000+0  00000+0 0  9992
2 43581  54.1463 210.2904 0001716 294.3647  65.5811  1.86228601 38319
BEIDOU-3 M6 (C24)       
1 43582U 18062B   24074.20907445  .00000031  00000+0  00000+0 0  9999
2 43582  54.1463 210.3576 0005728  37.2328 322.7654  1.86229318 38277
BEIDOU-3 M12 (C26)      
1 43602U 18067A   24075.75434409  .00000022  00000+0  00000+0 0  9993
2 43602  54.2354 208.9783 0007516  29.6793 330.3276  1.86231625 37785
BEIDOU-3 M11 (C25)      
1 43603U 18067B   24076.42517571  .00000014  00000+0  00000+0 0  9992
2 43603  54.2324 208.9207 0004221  24.7585 335.2265  1.86231510 37829
BEIDOU-3 M13 (C32)      
1 43622U 18072A   24076.38548800 -.00000010  00000+0  00000+0 0  9990
2 43622  55.9202  89.9740 0008996 294.4681  65.4738  1.86231296 37332
BEIDOU-3 M14 (C33)      
1 43623U 18072B   24075.71398521 -.00000012  00000+0  00000+0 0  9992
2 43623  55.9210  89.9893 0006559 311.2906  48.6887  1.86231401 37316
BEIDOU-3 M16 (C35)      
1 43647U 18078A   24075.34024825 -.00000097  00000+0  00000+0 0  9999
2 43647  54.7809 328.6768 0008283  14.3620 345.7019  1.86232251 36813
BEIDOU-3 M15 (C34)      
1 43648U 18078B   24074.93245124 -.00000096  00000+0  00000+0 0  9990
2 43648  54.7774 328.6942 0005271  19.6990 340.3625  1.86232097 36824
BEIDOU-3 G1 (C59)       
1 43683U 18085A   24076.58800926 -.00000290  00000+0  00000+0 0  9993
2 43683   1.9664 113.4645 0002253 318.6129  94.2360  1.00273555 19819
BEIDOU-3 M17 (C36)      
1 43706U 18093A   24075.61830367  .00000025  00000+0  00000+0 0  9998
2 43706  54.2294 210.2516 0006998 285.3530  74.5326  1.86228217 36208
BEIDOU-3 M18 (C37)      
1 43707U 18093B   24075.48437640  .00000026  00000+0  00000+0 0  9992
2 43707  54.2301 210.2479 0005842 324.1161  35.8073  1.86229657 36191
BEIDOU-3 IGSO-1 (C38)   
1 44204U 19023A   24076.62092295 -.00000207  00000+0  00000+0 0  9991
2 44204  57.5118  46.1890 0020149 216.3733 255.2849  1.00276881 18098
BEIDOU-2 G8 (C01)       
1 44231U 19027A   24076.54788925 -.00000259  00000+0  00000+0 0  9995
2 44231   1.7196  73.2330 0003478 181.6096 261.5429  1.00273043 17839
BEIDOU-3 IGSO-2 (C39)   
1 44337U 19035A   24075.74699170 -.00000151  00000+0  00000+0 0  9996
2 44337  55.1684 166.0882 0032503 205.3220 191.0365  1.00270115 17415
BEIDOU-3 M24 (C46)      
1 44542U 19061A   24074.48068616  .00000031  00000+0  00000+0 0  9994
2 44542  54.4569 210.5583 0007706   7.2007 352.7698  1.86231116 30433
BEIDOU-3 M23 (C45)      
1 44543U 19061B   24076.15553611  .00000020  00000+0  00000+0 0  9993
2 44543  54.4552 210.4704 0004416   0.6883 314.3243  1.86231507 30461
BEIDOU-3 IGSO-3 (C40)   
1 44709U 19073A   24075.98868785 -.00000163  00000+0  00000+0 0  9990
2 44709  56.2063 289.7074 0035638 179.8139 180.2103  1.00277995 16202
BEIDOU-3 M22 (C44)      
1 44793U 19078A   24073.25266330 -.00000088  00000+0  00000+0 0  9990
2 44793  54.6305 328.6930 0007296  19.6658 340.4076  1.86231938 29266
BEIDOU-3 M21 (C43)      
1 44794U 19078B   24076.06744663 -.00000098  00000+0  00000+0 0  9994
2 44794  54.6022 328.5731 0005141  15.0596 344.9950  1.86232518 29321
BEIDOU-3 M19 (C41)      
1 44864U 19090A   24076.56865701 -.00000009  00000+0  00000+0 0  9990
2 44864  55.8547  90.1433 0019915 280.5202 248.7642  1.86231666 28907
BEIDOU-3 M20 (C42)      
1 44865U 19090B   24076.44588152 -.00000010  00000+0  00000+0 0  9992
2 44865  55.8564  90.1807 0017694 292.1340 244.5924  1.86231604 28893
BEIDOU-3 G2 (C60)       
1 45344U 20017A   24076.54579694 -.00000152  00000+0  00000+0 0  9995
2 45344   2.2097  25.7781 0001992 286.6193 138.7345  1.00272114 15014
BEIDOU-3 G3 (C61)       
1 45807U 20040A   24076.55180149 -.00000365  00000+0  00000+0 0  9995
2 45807   0.6441  27.6674 0008392 296.2873 159.7340  1.00265289 13828
BEIDOU-3 G4             
1 56564U 23066A   24076.62582042 -.00000125  00000+0  00000+0 0  9998
2 56564   2.3547 288.2052 0002694 196.5145  75.1578  1.00273508  3145
BEIDOU-3 M25            
1 58654U 23207A   24075.61320825 -.00000015  00000+0  00000+0 0  9992
2 58654  55.0351  90.2572 0005052 282.1149  77.8647  1.86232147  1502
BEIDOU-3 M26            
1 58655U 23207B   24076.48586648 -.00000012  00000+0  00000+0 0  9993
2 58655  55.0380  90.2126 0005811 269.0876  90.8819  1.86231678  1508
